NORAD_CAT_ID,OBJECT_NAME,OBJECT_TYPE,EPOCH,MEAN_MOTION,ECCENTRICITY,INCLINATION,RA_OF_ASC_NODE,ARG_OF_PERICENTER,MEAN_ANOMALY,BSTAR,MEAN_MOTION_DOT,MEAN_MOTION_DDOT,TLE_LINE0,TLE_LINE1,TLE_LINE2,SEMIMAJOR_AXIS,PERIOD,APOGEE,PERIGEE,DECAYED
53888.0,STARLINK-5034,PAYLOAD,2022-10-17 14:00:01,15.73208847,0.0001233,53.2157,141.0766,44.3858,153.3337,0.00071379,0.00100803,0.0,0 STARLINK-5034,1 53888U 22119C   22290.58334491  .00100803  00000-0  71379-3 0  9991,2 53888  53.2157 141.0766 0001233  44.3858 153.3337 15.73208847  1307,6727.87,91.533,350.564,348.905,0.0
53888.0,STARLINK-5034,PAYLOAD,2022-10-17 20:00:01,15.73269788,0.0001416,53.2157,139.8433,37.7938,136.6134,-0.00049007,-0.00069042,0.0,0 STARLINK-5034,1 53888U 22119C   22290.83334491 -.00069042  00000-0 -49007-3 0  9993,2 53888  53.2157 139.8433 0001416  37.7938 136.6134 15.73269788  4034,6727.696,91.529,350.514,348.6090000000001,0.0
53888.0,STARLINK-5034,PAYLOAD,2022-10-17 22:00:00,15.73261492,0.0001472,53.2159,139.4314,36.3671,250.2894,-0.0005021,-0.00070683,0.0,0 STARLINK-5034,1 53888U 22119C   22290.91667824 -.00070683  00000-0 -50210-3 0  9992,2 53888  53.2159 139.4314 0001472  36.3671 250.2894 15.73261492  1308,6727.72,91.53,350.575,348.595,0.0
53888.0,STARLINK-5034,PAYLOAD,2022-10-18 14:00:01,15.73151175,0.0001563,53.2161,136.1305,50.1853,54.361,0.0003892,0.00054241,0.0,0 STARLINK-5034,1 53888U 22119C   22291.58334491  .00054241  00000-0  38920-3 0  9991,2 53888  53.2161 136.1305 0001563  50.1853  54.3610 15.73151175  1307,6728.034000000002,91.536,350.951,348.848,0.0
53888.0,STARLINK-5034,PAYLOAD,2022-10-18 20:00:01,15.73205313,0.0001716,53.2175,134.8748,45.70399999999999,35.5696,-1.2435e-05,-2.366e-05,0.0,0 STARLINK-5034,1 53888U 22119C   22291.83334491 -.00002366  00000-0 -12435-4 0  9996,2 53888  53.2175 134.8748 0001716  45.7040  35.5696 15.73205313  4195,6727.88,91.533,350.9,348.591,0.0
53888.0,STARLINK-5034,PAYLOAD,2022-10-18 22:00:00,15.73204462,0.0001705,53.2176,134.4628,45.6038,147.9035,7.469899999999998e-07,-5.16e-06,0.0,0 STARLINK-5034,1 53888U 22119C   22291.91667824 -.00000516  00000-0  74699-6 0  9990,2 53888  53.2176 134.4628 0001705  45.6038 147.9035 15.73204462  1302,6727.882,91.533,350.895,348.6,0.0
53888.0,STARLINK-5034,PAYLOAD,2022-10-19 14:00:01,15.73213183,0.0001349,53.2156,131.1822,41.418,329.931,0.0003361,0.00046839,0.0,0 STARLINK-5034,1 53888U 22119C   22292.58334491  .00046839  00000-0  33610-3 0  9997,2 53888  53.2156 131.1822 0001349  41.4180 329.9310 15.73213183  1304,6727.858,91.532,350.63,348.815,0.0
53888.0,STARLINK-5034,PAYLOAD,2022-10-19 22:00:00,15.732158600000002,0.0001557,53.2164,129.5246,42.2352,58.0697,-0.00020555,-0.00029387,0.0,0 STARLINK-5034,1 53888U 22119C   22292.91667824 -.00029387  00000-0 -20555-3 0  9998,2 53888  53.2164 129.5246 0001557  42.2352  58.0697 15.73215860  1307,6727.85,91.532,350.76199999999994,348.667,0.0
53888.0,STARLINK-5034,PAYLOAD,2022-10-20 06:00:00,15.7325878,0.000169,53.2158,127.8838,42.3767,146.8818,-0.00062154,-0.00087174,0.0,0 STARLINK-5034,1 53888U 22119C   22293.25001157 -.00087174  00000-0 -62154-3 0  9996,2 53888  53.2158 127.8838 0001690  42.3767 146.8818 15.73258780  4411,6727.728,91.53,350.73,348.456,0.0
53888.0,STARLINK-5034,PAYLOAD,2022-10-20 12:00:00,15.73197721,0.0001644,53.2157,126.6457,48.7144,117.2733,0.00029271,0.00040655,0.0,0 STARLINK-5034,1 53888U 22119C   22293.50001157  .00040655  00000-0  29271-3 0  9998,2 53888  53.2157 126.6457 0001644  48.7144 117.2733 15.73197721  4451,6727.901999999999,91.533,350.87300000000016,348.661,0.0
53888.0,STARLINK-5034,PAYLOAD,2022-10-20 14:00:01,15.73230617,0.000166,53.2158,126.2338,48.0614,230.1392,-0.00029815,-0.0004231,0.0,0 STARLINK-5034,1 53888U 22119C   22293.58334491 -.00042310  00000-0 -29815-3 0  9992,2 53888  53.2158 126.2338 0001660  48.0614 230.1392 15.73230617  1308,6727.808000000001,91.531,350.79,348.556,0.0
53888.0,STARLINK-5034,PAYLOAD,2022-10-20 20:00:01,15.73178984,0.0001844,53.2155,124.9975,40.6475,214.2776,0.00012252,0.00016593,0.0,0 STARLINK-5034,1 53888U 22119C   22293.83334491  .00016593  00000-0  12252-3 0  9999,2 53888  53.2155 124.9975 0001844  40.6475 214.2776 15.73178984  4506,6727.955,91.534,351.061,348.579,0.0
53888.0,STARLINK-5034,PAYLOAD,2022-10-20 22:00:00,15.73155555,0.0001828,53.2157,124.5828,39.9748,327.1855,0.00056861,0.00079791,0.0,0 STARLINK-5034,1 53888U 22119C   22293.91667824  .00079791  00000-0  56861-3 0  9990,2 53888  53.2157 124.5828 0001828  39.9748 327.1855 15.73155555  1303,6728.022,91.536,351.117,348.657,0.0
53888.0,STARLINK-5034,PAYLOAD,2022-10-21 12:00:00,15.73180615,0.0001391,53.215,121.6971,37.9519,34.8581,0.00066713,0.00093983,0.0,0 STARLINK-5034,1 53888U 22119C   22294.50001157  .00093983  00000-0  66713-3 0  9993,2 53888  53.2150 121.6971 0001391  37.9519  34.8581 15.73180615  4612,6727.95,91.534,350.751,348.88,0.0
53888.0,STARLINK-5034,PAYLOAD,2022-10-21 14:00:01,15.732120000000002,0.0001395,53.2155,121.2839,37.022,148.0128,0.00040763,0.00057007,0.0,0 STARLINK-5034,1 53888U 22119C   22294.58334491  .00057007  00000-0  40763-3 0  9995,2 53888  53.2155 121.2839 0001395  37.0220 148.0128 15.73212000  1302,6727.861,91.532,350.664,348.787,0.0
53888.0,STARLINK-5034,PAYLOAD,2022-10-21 20:00:01,15.73247983,0.0001737,53.215,120.0496,33.7142,128.0171,-0.00047088,-0.00066325,0.0,0 STARLINK-5034,1 53888U 22119C   22294.83334491 -.00066325  00000-0 -47088-3 0  9995,2 53888  53.2150 120.0496 0001737  33.7142 128.0171 15.73247983  4665,6727.7580000000025,91.53,350.792,348.455,0.0
53888.0,STARLINK-5034,PAYLOAD,2022-10-21 22:00:00,15.73223349,0.0001805,53.2152,119.6376,34.3033,239.6766,-0.00023391,-0.00033353,0.0,0 STARLINK-5034,1 53888U 22119C   22294.91667824 -.00033353  00000-0 -23391-3 0  9999,2 53888  53.2152 119.6376 0001805  34.3033 239.6766 15.73223349  1307,6727.829000000002,91.532,350.908,348.47900000000016,0.0
53888.0,STARLINK-5034,PAYLOAD,2022-10-22 12:00:00,15.73176865,0.0001816,53.2152,116.7484,45.0488,294.5561,0.00056368,0.0007916,0.0,0 STARLINK-5034,1 53888U 22119C   22295.50001157  .00079160  00000-0  56368-3 0  9990,2 53888  53.2152 116.7484 0001816  45.0488 294.5561 15.73176865  4766,6727.9609999999975,91.535,351.048,348.60400000000016,0.0
53888.0,STARLINK-5034,PAYLOAD,2022-10-22 14:00:01,15.73212095,0.000184,53.2152,116.3366,44.3568,47.4694,0.00017901,0.00024589,0.0,0 STARLINK-5034,1 53888U 22119C   22295.58334491  .00024589  00000-0  17901-3 0  9993,2 53888  53.2152 116.3366 0001840  44.3568  47.4694 15.73212095  1304,6727.861,91.532,350.964,348.48800000000006,0.0
53888.0,STARLINK-5034,PAYLOAD,2022-10-22 22:00:00,15.732116199999998,0.0001956999999999,53.2148,114.6887,33.2795,147.5229,0.00029085,0.00040417,0.0,0 STARLINK-5034,1 53888U 22119C   22295.91667824  .00040417  00000-0  29085-3 0  9993,2 53888  53.2148 114.6887 0001957  33.2795 147.5229 15.73211620  1305,6727.861999999999,91.533,351.0440000000001,348.41,0.0
53888.0,STARLINK-5034,PAYLOAD,2022-10-23 06:00:00,15.73278389,0.0001629,53.2144,113.0372,31.172,238.5925,-0.00016781,-0.00024184,0.0,0 STARLINK-5034,1 53888U 22119C   22296.25001157 -.00024184  00000-0 -16781-3 0  9996,2 53888  53.2144 113.0372 0001629  31.1720 238.5925 15.73278389  4889,6727.672,91.529,350.6330000000001,348.441,0.0
53888.0,STARLINK-5034,PAYLOAD,2022-10-23 12:00:00,15.73222156,0.0001527,53.2145,111.7994,32.2885,214.2194,0.00029863,0.00041538,0.0,0 STARLINK-5034,1 53888U 22119C   22296.50001157  .00041538  00000-0  29863-3 0  9999,2 53888  53.2145 111.7994 0001527  32.2885 214.2194 15.73222156  4921,6727.831999999999,91.532,350.724,348.67,0.0
53888.0,STARLINK-5034,PAYLOAD,2022-10-23 14:00:01,15.73248431,0.0001585,53.2146,111.3876,30.2611,328.4825,-8.1411e-05,-0.00012054,0.0,0 STARLINK-5034,1 53888U 22119C   22296.58334491 -.00012054  00000-0 -81411-4 0  9998,2 53888  53.2146 111.3876 0001585  30.2611 328.4825 15.73248431  1308,6727.757,91.53,350.68800000000016,348.556,0.0
53888.0,STARLINK-5034,PAYLOAD,2022-10-23 20:00:01,15.73250985,0.0001811999999999,53.2146,110.1518,27.8472,307.6321,-0.00057839,-0.00081196,0.0,0 STARLINK-5034,1 53888U 22119C   22296.83334491 -.00081196  00000-0 -57839-3 0  9995,2 53888  53.2146 110.1518 0001812  27.8472 307.6321 15.73250985  4971,6727.75,91.53,350.834,348.396,0.0
53888.0,STARLINK-5034,PAYLOAD,2022-10-23 22:00:00,15.73215406,0.0001847,53.2147,109.7396,26.1529,61.57899999999999,-0.00023562,-0.0003358,0.0,0 STARLINK-5034,1 53888U 22119C   22296.91667824 -.00033580  00000-0 -23562-3 0  9993,2 53888  53.2147 109.7396 0001847  26.1529  61.5790 15.73215406  1302,6727.851,91.532,350.959,348.474,0.0
53888.0,STARLINK-5034,PAYLOAD,2022-10-24 14:00:01,15.73081762,0.0001798,53.2149,106.4387,30.573,234.9628,0.00018202,0.00024873,0.0,0 STARLINK-5034,1 53888U 22119C   22297.58334491  .00024873  00000-0  18202-3 0  9996,2 53888  53.2149 106.4387 0001798  30.5730 234.9628 15.73081762  1308,6728.232,91.54,351.307,348.88800000000015,0.0
53888.0,STARLINK-5034,PAYLOAD,2022-10-24 20:00:01,15.73047211,0.0001976,53.2147,105.2032,23.3871,218.7488,0.0015898,0.00227149,0.0,0 STARLINK-5034,1 53888U 22119C   22297.83334491  .00227149  00000-0  15898-2 0  9992,2 53888  53.2147 105.2032 0001976  23.3871 218.7488 15.73047211  5134,6728.331,91.542,351.525,348.866,0.0
53888.0,STARLINK-5034,PAYLOAD,2022-10-24 22:00:00,15.73081817,0.000199,53.2144,104.791,21.4368,332.8868,0.0014255,0.00203328,0.0,0 STARLINK-5034,1 53888U 22119C   22297.91667824  .00203328  00000-0  14255-2 0  9999,2 53888  53.2144 104.7910 0001990  21.4368 332.8868 15.73081817  1301,6728.232,91.54,351.436,348.7580000000001,0.0
53888.0,STARLINK-5034,PAYLOAD,2022-10-25 04:00:00,15.73237829,0.0001797,53.2143,103.5523,20.2578,310.6997,-0.00039983,-0.00056453,0.0,0 STARLINK-5034,1 53888U 22119C   22298.16667824 -.00056453  00000-0 -39983-3 0  9990,2 53888  53.2143 103.5523 0001797  20.2578 310.6997 15.73237829  5185,6727.7869999999975,91.531,350.861,348.4430000000001,0.0
